{"type": "FeatureCollection", "features": [ {"type": "Feature", "properties": {"norad_id": 34875, "name": "COSMOS 2251 DEB", "group": "cosmos-2251-debris", "lat": 65.20599654418773, "lon": 178.68313335690164, "alt_km": 733.6095248030515, "timestamp": "2025-12-22T05:49:03.896613+00:00", "meta": {"OBJECT_NAME": "COSMOS 2251 DEB", "OBJECT_ID": "1993-036ACN", "EPOCH": "2025-12-19T11:28:39.014112", "MEAN_MOTION": 14.48947014, "ECCENTRICITY": 0.0016196, "INCLINATION": 74.0433, "RA_OF_ASC_NODE": 145.5897, "ARG_OF_PERICENTER": 268.763, "MEAN_ANOMALY": 149.3216, "EPHEMERIS_TYPE": 0, "CLASSIFICATION_TYPE": "U", "NORAD_CAT_ID": 34875, "ELEMENT_SET_NO": 999, "REV_AT_EPOCH": 87853, "BSTAR": 0.00033791, "MEAN_MOTION_DOT": 1.255e-05, "MEAN_MOTION_DDOT": 0}, "tle": {"line1": "1 34875U 93036ACN 25353.47822933  .00001255  00000+0  33791-3 0  9992", "line2": "2 34875  74.0433 145.5897 0016196 268.7630 149.3216 14.48947014878533"}}, "geometry": {"type": "Point", "coordinates": [178.68313335690164, 65.20599654418773]}}, {"type": "Feature", "properties": {"norad_id": 34878, "name": "COSMOS 2251 DEB", "group": "cosmos-2251-debris", "lat": -35.705348314341656, "lon": -135.82395938546418, "alt_km": 1395.9713375415758, "timestamp": "2025-12-22T05:49:03.896623+00:00", "meta": {"OBJECT_NAME": "COSMOS 2251 DEB", "OBJECT_ID": "1993-036ACR", "EPOCH": "2025-12-21T20:42:06.269184", "MEAN_MOTION": 13.44202335, "ECCENTRICITY": 0.0435641, "INCLINATION": 73.9646, "RA_OF_ASC_NODE": 32.8499, "ARG_OF_PERICENTER": 14.5745, "MEAN_ANOMALY": 167.3818, "EPHEMERIS_TYPE": 0, "CLASSIFICATION_TYPE": "U", "NORAD_CAT_ID": 34878, "ELEMENT_SET_NO": 999, "REV_AT_EPOCH": 81395, "BSTAR": 0.00060891, "MEAN_MOTION_DOT": 6.05e-06, "MEAN_MOTION_DDOT": 0}, "tle": {"line1": "1 34878U 93036ACR 25355.86257256  .00000605  00000+0  60891-3 0  9999", "line2": "2 34878  73.9646  32.8499 0435641  14.5745 167.3818 13.44202335813958"}}, "geometry": {"type": "Point", "coordinates": [-135.82395938546418, -35.705348314341656]}}, {"type": "Feature", "properties": {"norad_id": 34882, "name": "COSMOS 2251 DEB", "group": "cosmos-2251-debris", "lat": 73.8790219595284, "lon": -70.77571582586017, "alt_km": 705.6192805399696, "timestamp": "2025-12-22T05:49:03.896633+00:00", "meta": {"OBJECT_NAME": "COSMOS 2251 DEB", "OBJECT_ID": "1993-036ACV", "EPOCH": "2025-12-20T00:51:13.406976", "MEAN_MOTION": 14.61609371, "ECCENTRICITY": 0.00831704, "INCLINATION": 74.0454, "RA_OF_ASC_NODE": 211.6418, "ARG_OF_PERICENTER": 336.8506, "MEAN_ANOMALY": 22.892, "EPHEMERIS_TYPE": 0, "CLASSIFICATION_TYPE": "U", "NORAD_CAT_ID": 34882, "ELEMENT_SET_NO": 999, "REV_AT_EPOCH": 88631, "BSTAR": 9.3819034e-05, "MEAN_MOTION_DOT": 4.56e-06, "MEAN_MOTION_DDOT": 0}, "tle": {"line1": "1 34882U 93036ACV 25354.03557184  .00000456  00000+0  93819-4 0  9996", "line2": "2 34882  74.0454 211.6418 0083170 336.8506  22.8920 14.61609371886311"}}, "geometry": {"type": "Point", "coordinates": [-70.77571582586017, 73.8790219595284]}}, {"type": "Feature", "properties": {"norad_id": 34883, "name": "COSMOS 2251 DEB", "group": "cosmos-2251-debris", "lat": 26.256766287414973, "lon": -143.02112323434847, "alt_km": 701.5223846182344, "timestamp": "2025-12-22T05:49:03.896645+00:00", "meta": {"OBJECT_NAME": "COSMOS 2251 DEB", "OBJECT_ID": "1993-036ACW", "EPOCH": "2025-12-18T13:27:07.209504", "MEAN_MOTION": 14.51672805, "ECCENTRICITY": 0.00951028, "INCLINATION": 74.2022, "RA_OF_ASC_NODE": 51.868, "ARG_OF_PERICENTER": 236.3156, "MEAN_ANOMALY": 122.8912, "EPHEMERIS_TYPE": 0, "CLASSIFICATION_TYPE": "U", "NORAD_CAT_ID": 34883, "ELEMENT_SET_NO": 999, "REV_AT_EPOCH": 86524, "BSTAR": 0.0028915699, "MEAN_MOTION_DOT": 0.00012297, "MEAN_MOTION_DDOT": 0}, "tle": {"line1": "1 34883U 93036ACW 25352.56050011  .00012297  00000+0  28916-2 0  9990", "line2": "2 34883  74.2022  51.8680 0095102 236.3156 122.8912 14.51672805865245"}}, "geometry": {"type": "Point", "coordinates": [-143.02112323434847, 26.256766287414973]}}, {"type": "Feature", "properties": {"norad_id": 34884, "name": "COSMOS 2251 DEB", "group": "cosmos-2251-debris", "lat": -30.65019131764723, "lon": 27.919696605606028, "alt_km": 601.640761610467, "timestamp": "2025-12-22T05:49:03.896658+00:00", "meta": {"OBJECT_NAME": "COSMOS 2251 DEB", "OBJECT_ID": "1993-036ACX", "EPOCH": "2025-12-21T14:24:44.756928", "MEAN_MOTION": 14.90421779, "ECCENTRICITY": 0.0002788, "INCLINATION": 74.0169, "RA_OF_ASC_NODE": 38.9847, "ARG_OF_PERICENTER": 42.2579, "MEAN_ANOMALY": 83.2158, "EPHEMERIS_TYPE": 0, "CLASSIFICATION_TYPE": "U", "NORAD_CAT_ID": 34884, "ELEMENT_SET_NO": 999, "REV_AT_EPOCH": 87937, "BSTAR": 0.0017845, "MEAN_MOTION_DOT": 0.00017403, "MEAN_MOTION_DDOT": 0}, "tle": {"line1": "1 34884U 93036ACX 25355.60051802  .00017403  00000+0  17845-2 0  9991", "line2": "2 34884  74.0169  38.9847 0002788  42.2579  83.2158 14.90421779879374"}}, "geometry": {"type": "Point", "coordinates": [27.919696605606028, -30.65019131764723]}}, {"type": "Feature", "properties": {"norad_id": 34885, "name": "COSMOS 2251 DEB", "group": "cosmos-2251-debris", "lat": -28.961992515097922, "lon": 156.009737987694, "alt_km": 724.1358854339323, "timestamp": "2025-12-22T05:49:03.896669+00:00", "meta": {"OBJECT_NAME": "COSMOS 2251 DEB", "OBJECT_ID": "1993-036ACY", "EPOCH": "2025-12-21T20:33:37.016352", "MEAN_MOTION": 14.51546235, "ECCENTRICITY": 0.0015102, "INCLINATION": 74.0299, "RA_OF_ASC_NODE": 165.855, "ARG_OF_PERICENTER": 251.2816, "MEAN_ANOMALY": 223.5837, "EPHEMERIS_TYPE": 0, "CLASSIFICATION_TYPE": "U", "NORAD_CAT_ID": 34885, "ELEMENT_SET_NO": 999, "REV_AT_EPOCH": 87611, "BSTAR": 0.00056379, "MEAN_MOTION_DOT": 2.232e-05, "MEAN_MOTION_DDOT": 0}, "tle": {"line1": "1 34885U 93036ACY 25355.85667843  .00002232  00000+0  56379-3 0  9997", "line2": "2 34885  74.0299 165.8550 0015102 251.2816 223.5837 14.51546235876114"}}, "geometry": {"type": "Point", "coordinates": [156.009737987694, -28.961992515097922]}}, {"type": "Feature", "properties": {"norad_id": 34886, "name": "COSMOS 2251 DEB", "group": "cosmos-2251-debris", "lat": 7.889648016579686, "lon": -21.91137133888527, "alt_km": 469.5229876113144, "timestamp": "2025-12-22T05:49:03.896679+00:00", "meta": {"OBJECT_NAME": "COSMOS 2251 DEB", "OBJECT_ID": "1993-036ACZ", "EPOCH": "2025-12-19T05:20:10.106016", "MEAN_MOTION": 15.39455892, "ECCENTRICITY": 0.0031395, "INCLINATION": 73.9504, "RA_OF_ASC_NODE": 166.9286, "ARG_OF_PERICENTER": 349.772, "MEAN_ANOMALY": 10.2844, "EPHEMERIS_TYPE": 0, "CLASSIFICATION_TYPE": "U", "NORAD_CAT_ID": 34886, "ELEMENT_SET_NO": 999, "REV_AT_EPOCH": 63098, "BSTAR": 0.0012728, "MEAN_MOTION_DOT": 0.00051055, "MEAN_MOTION_DDOT": 0}, "tle": {"line1": "1 34886U 93036ACZ 25353.22233919  .00051055  00000+0  12728-2 0  9996", "line2": "2 34886  73.9504 166.9286 0031395 349.7720  10.2844 15.39455892630986"}}, "geometry": {"type": "Point", "coordinates": [-21.91137133888527, 7.889648016579686]}}, {"type": "Feature", "properties": {"norad_id": 34907, "name": "COSMOS 2251 DEB", "group": "cosmos-2251-debris", "lat": 15.248797849949087, "lon": 32.057688790791566, "alt_km": 407.8420589090938, "timestamp": "2025-12-22T05:49:03.896689+00:00", "meta": {"OBJECT_NAME": "COSMOS 2251 DEB", "OBJECT_ID": "1993-036ADC", "EPOCH": "2025-12-21T12:42:42.511680", "MEAN_MOTION": 15.49920012, "ECCENTRICITY": 0.0018559, "INCLINATION": 73.9666, "RA_OF_ASC_NODE": 29.1312, "ARG_OF_PERICENTER": 328.4772, "MEAN_ANOMALY": 31.5327, "EPHEMERIS_TYPE": 0, "CLASSIFICATION_TYPE": "U", "NORAD_CAT_ID": 34907, "ELEMENT_SET_NO": 999, "REV_AT_EPOCH": 88109, "BSTAR": 0.006372, "MEAN_MOTION_DOT": 0.00375951, "MEAN_MOTION_DDOT": 0}, "tle": {"line1": "1 34907U 93036ADC 25355.52965870  .00375951  00000+0  63720-2 0  9995", "line2": "2 34907  73.9666  29.1312 0018559 328.4772  31.5327 15.49920012881091"}}, "geometry": {"type": "Point", "coordinates": [32.057688790791566, 15.248797849949087]}}, {"type": "Feature", "properties": {"norad_id": 34908, "name": "COSMOS 2251 DEB", "group": "cosmos-2251-debris", "lat": -73.94702702580766, "lon": -90.4065892344347, "alt_km": 784.3739937649252, "timestamp": "2025-12-22T05:49:03.896699+00:00", "meta": {"OBJECT_NAME": "COSMOS 2251 DEB", "OBJECT_ID": "1993-036ADD", "EPOCH": "2025-12-21T19:23:25.564128", "MEAN_MOTION": 14.37423542, "ECCENTRICITY": 0.0040488, "INCLINATION": 74.0578, "RA_OF_ASC_NODE": 6.9921, "ARG_OF_PERICENTER": 20.3399, "MEAN_ANOMALY": 160.9032, "EPHEMERIS_TYPE": 0, "CLASSIFICATION_TYPE": "U", "NORAD_CAT_ID": 34908, "ELEMENT_SET_NO": 999, "REV_AT_EPOCH": 87409, "BSTAR": 0.00042947, "MEAN_MOTION_DOT": 1.27e-05, "MEAN_MOTION_DDOT": 0}, "tle": {"line1": "1 34908U 93036ADD 25355.80793477  .00001270  00000+0  42947-3 0  9998", "line2": "2 34908  74.0578   6.9921 0040488  20.3399 160.9032 14.37423542874098"}}, "geometry": {"type": "Point", "coordinates": [-90.4065892344347, -73.94702702580766]}}, {"type": "Feature", "properties": {"norad_id": 34909, "name": "COSMOS 2251 DEB", "group": "cosmos-2251-debris", "lat": -13.93934505044247, "lon": 53.81017585866064, "alt_km": 693.1266493553512, "timestamp": "2025-12-22T05:49:03.896709+00:00", "meta": {"OBJECT_NAME": "COSMOS 2251 DEB", "OBJECT_ID": "1993-036ADE", "EPOCH": "2025-12-21T03:53:25.652544", "MEAN_MOTION": 14.77897576, "ECCENTRICITY": 0.00839569, "INCLINATION": 74.0144, "RA_OF_ASC_NODE": 60.0133, "ARG_OF_PERICENTER": 193.8754, "MEAN_ANOMALY": 166.0115, "EPHEMERIS_TYPE": 0, "CLASSIFICATION_TYPE": "U", "NORAD_CAT_ID": 34909, "ELEMENT_SET_NO": 999, "REV_AT_EPOCH": 66976, "BSTAR": 0.00033880462, "MEAN_MOTION_DOT": 2.55e-05, "MEAN_MOTION_DDOT": 0}, "tle": {"line1": "1 34909U 93036ADE 25355.16210246  .00002550  00000+0  33880-3 0  9994", "line2": "2 34909  74.0144  60.0133 0083956 193.8754 166.0115 14.77897576669763"}}, "geometry": {"type": "Point", "coordinates": [53.81017585866064, -13.93934505044247]}}]}